[{"OBJECT_NAME":"STARLINK-5447","OBJECT_ID":"2022-175X","EPOCH":"2026-03-09T04:43:18.673824","MEAN_MOTION":15.08831851,"ECCENTRICITY":0.00012685,"INCLINATION":53.2191,"RA_OF_ASC_NODE":31.4361,"ARG_OF_PERICENTER":93.8484,"MEAN_ANOMALY":266.2653,"EPHEMERIS_TYPE":0,"CLASSIFICATION_TYPE":"U","NORAD_CAT_ID":54779,"ELEMENT_SET_NO":999,"REV_AT_EPOCH":18005,"BSTAR":-3.3152079e-5,"MEAN_MOTION_DOT":-8.15e-6,"MEAN_MOTION_DDOT":0},{"OBJECT_NAME":"SL-6 R\/B(2)","OBJECT_ID":"1990-055D","EPOCH":"2026-03-09T21:41:59.551872","MEAN_MOTION":15.03595553,"ECCENTRICITY":0.00247741,"INCLINATION":62.7825,"RA_OF_ASC_NODE":253.121,"ARG_OF_PERICENTER":347.1508,"MEAN_ANOMALY":12.8957,"EPHEMERIS_TYPE":0,"CLASSIFICATION_TYPE":"U","NORAD_CAT_ID":20666,"ELEMENT_SET_NO":999,"REV_AT_EPOCH":93822,"BSTAR":0.00020900577,"MEAN_MOTION_DOT":2.688e-5,"MEAN_MOTION_DDOT":0}]
